{"type":"FeatureCollection","features":[{"type":"Feature","id":2,"geometry":{"type":"LineString","coordinates":[[-149.73982095422247,61.154209691869561],[-149.73988581887417,61.154228548476311],[-149.73994233368532,61.154246836890735],[-149.74003239877572,61.15427192656017],[-149.74010953261759,61.154295668786197],[-149.74019079870979,61.154318039301849],[-149.74026515406246,61.154340261147482],[-149.7403312305415,61.154359143246438],[-149.74040974060239,61.154381670605432],[-149.74046820565601,61.154397994793683],[-149.74051656196778,61.154411640605517],[-149.74056366423136,61.154426107690611],[-149.74061578089089,61.154442997866454],[-149.74067503915691,61.154459769283783],[-149.74074058113837,61.154477191213616],[-149.74080692082379,61.154494544657901],[-149.74087321559347,61.154510385122826],[-149.74093694657128,61.154525946909168],[-149.74099938667007,61.154539341298779],[-149.74107110187413,61.15455384819731],[-149.74113785658119,61.154569465436225],[-149.74121077822269,61.154587686044167],[-149.74127159237082,61.154601098176585],[-149.74133707686008,61.15461946048481],[-149.74138772387579,61.154632299662303],[-149.74144294690959,61.154644450611755]]},"properties":{"OBJECTID":2,"esrignss_avg_h_rms":0.36300383544679932,"esrignss_avg_v_rms":0.61784615384615393,"esrignss_manual_locations":0,"Shape__Length":206.82884567689186,"CreationDate":1779923420420,"Creator":"sfmoore@middlebury.edu_middlebury","EditDate":1785452127719,"Editor":"sfmoore@middlebury.edu_middlebury","col_date":"2026-05-27","travel_direction":"West","name":"Basher 1","youtube":"CfG_1aSznwA"}},{"type":"Feature","id":3,"geometry":{"type":"LineString","coordinates":[[-149.7300027068319,61.08381978273151],[-149.73000232774285,61.08381994083927],[-149.73000503077353,61.083797544691151],[-149.73000421869651,61.083770499109143],[-149.73000372731806,61.083746192163076],[-149.73000276612069,61.083720392291426],[-149.73000296375005,61.083693213293849],[-149.73000211035054,61.083665817525187],[-149.73000274725609,61.083638705372884],[-149.73000338505994,61.083612002369044],[-149.73000120844199,61.083586011701676],[-149.73000327097387,61.083558585000304],[-149.7300018830768,61.083532521315568],[-149.73000261250877,61.083505388633839],[-149.73000520325004,61.083479935624872],[-149.73000574044261,61.083453402324629],[-149.73000722535778,61.083426465040425],[-149.73000819733491,61.083400104139322],[-149.73000842101541,61.083377738968593],[-149.73000509904548,61.083359039851146],[-149.73000755953103,61.083333244876314],[-149.73000889083431,61.083305757144238],[-149.73000954840109,61.083279546000078],[-149.73001259548656,61.083252797953158],[-149.73001441277836,61.083226944686125],[-149.73001658939629,61.083200436801626],[-149.73001754340711,61.083173257357551],[-149.73002074051121,61.083146436680757],[-149.73002044316885,61.083119064329324],[-149.73002137651844,61.083093170556452],[-149.73002353067849,61.083065401576931],[-149.73002383071579,61.083038156861008],[-149.73002483772723,61.083011286551198],[-149.73002443258702,61.082984658164634],[-149.7300242421442,61.082958213930198],[-149.73002466974228,61.082930536919584]]},"properties":{"OBJECTID":3,"esrignss_avg_h_rms":0.28726927943492142,"esrignss_avg_v_rms":0.49677777777777771,"esrignss_manual_locations":0,"Shape__Length":204.90831204546407,"CreationDate":1779992323058,"Creator":"sfmoore@middlebury.edu_middlebury","EditDate":1785452127719,"Editor":"sfmoore@middlebury.edu_middlebury","col_date":"2026-05-28","travel_direction":"South","name":"Heights Hill","youtube":"05rkkyugpwA"}},{"type":"Feature","id":4,"geometry":{"type":"LineString","coordinates":[[-149.76367607502004,61.166701955634998],[-149.76367725720297,61.166701840397373],[-149.76365427111148,61.166678493508421],[-149.76362991239421,61.166657695263275],[-149.76361039918964,61.166635787515162],[-149.76358785327261,61.166612561880399],[-149.76356244262817,61.166586195775643],[-149.76353966225088,61.166561912599647],[-149.76351507895484,61.166537997214128],[-149.76348998361905,61.166512472373306],[-149.76346140281998,61.166488088198655],[-149.76343709889994,61.166463486525018],[-149.7634131381364,61.166439332789629],[-149.76338687588907,61.166412215755798],[-149.76336251717183,61.166389643698082],[-149.76333643099429,61.166366460338487],[-149.76331248999364,61.166340759034632],[-149.76329011116326,61.16631306961996],[-149.76325207379921,61.166285772687189],[-149.76322291628171,61.166263977753822],[-149.76318700522992,61.166241223199989],[-149.76315540968474,61.1662227216557],[-149.76312617940374,61.16619827443855],[-149.76309342233688,61.166175063644758],[-149.76306271522552,61.16615087589642],[-149.76303531211778,61.166127212773524],[-149.76300432113879,61.166103445657107],[-149.76297070797747,61.166080640732517],[-149.76294118754063,61.166058935336629],[-149.762907507904,61.166036069727156],[-149.76287544613319,61.166015417058098],[-149.76284675124805,61.16599298941653],[-149.76281934185212,61.165970814767761],[-149.76279177075941,61.165950983468448]]},"properties":{"OBJECTID":4,"esrignss_avg_h_rms":0.6829063959320596,"esrignss_avg_v_rms":1.0357941176470586,"esrignss_manual_locations":0,"Shape__Length":200.17374822663785,"CreationDate":1780007949378,"Creator":"sfmoore@middlebury.edu_middlebury","EditDate":1785452127719,"Editor":"sfmoore@middlebury.edu_middlebury","col_date":"2026-05-28","travel_direction":"East","name":"Basher 2","youtube":"l6EWQ_O2x2k"}},{"type":"Feature","id":5,"geometry":{"type":"LineString","coordinates":[[-149.76092130586136,61.163825794377111],[-149.76092085850033,61.163825934754506],[-149.76093573010988,61.163840569095939],[-149.76095966841555,61.163854661418313],[-149.76100460214607,61.163885750637995],[-149.76102349730974,61.163896213932503],[-149.76105913257877,61.16391983366978],[-149.76108469773342,61.163937107833618],[-149.76112806390375,61.163964014263755],[-149.76116365605364,61.163988523869143],[-149.76119148496284,61.164006008560257],[-149.76124462839672,61.164042045900942],[-149.76128206748282,61.164066630399738],[-149.76132246741611,61.164095213868571],[-149.76136109048173,61.164124219306252],[-149.76139810556302,61.164150616497345],[-149.76143882080493,61.164180919494022],[-149.76148033015761,61.164206434956874],[-149.76150148099097,61.164222176096388],[-149.7615338679519,61.164251090866465],[-149.7615677029971,61.164279183720808],[-149.7616173214418,61.164321634683695],[-149.76164846872766,61.164350617817107],[-149.76167606137992,61.164374963784596],[-149.76172398470368,61.164412286173004],[-149.76175417348713,61.164438654528205],[-149.76177322136442,61.164456722564239],[-149.76179891228321,61.164483034559183],[-149.76182864651912,61.164510188345105],[-149.76185863767321,61.16453627760297],[-149.7618766524879,61.164553930959372]]},"properties":{"OBJECTID":5,"esrignss_avg_h_rms":0.533049132993071,"esrignss_avg_v_rms":0.96429032258064495,"esrignss_manual_locations":0,"Shape__Length":199.42963886755484,"CreationDate":1780008934735,"Creator":"sfmoore@middlebury.edu_middlebury","EditDate":1785452127719,"Editor":"sfmoore@middlebury.edu_middlebury","col_date":"2026-05-28","travel_direction":"West","name":"Basher 3","youtube":"HYrGOFXZK_Y"}},{"type":"Feature","id":6,"geometry":{"type":"LineString","coordinates":[[-149.78896398264467,61.143849313697629],[-149.7889631148721,61.143848748797694],[-149.78895131011095,61.143822871773615],[-149.78893981526858,61.143800544109183],[-149.78892920526678,61.143780359845294],[-149.78891685971982,61.14374757951893],[-149.78890747681666,61.143721684203257],[-149.78889543400194,61.143694860223519],[-149.78888582562169,61.143666657128833],[-149.78888385471797,61.143641281995755],[-149.78887862742133,61.143615965803882],[-149.78886756646523,61.143594727049269],[-149.78885646508496,61.143560802413077],[-149.78884827065292,61.143534861855784],[-149.78883872695135,61.143510708339853],[-149.78883168685448,61.143484563109162],[-149.78882076693387,61.143456341184248],[-149.78881426043628,61.143431580213573],[-149.78880783927863,61.143409085357952],[-149.788796688491,61.143376855681069],[-149.78878924954213,61.143354678574767],[-149.78877968967089,61.143330367977683],[-149.78877973638328,61.143294374178069],[-149.78877063016122,61.143278094971336],[-149.78874858101258,61.1432455291624],[-149.78874014223879,61.143219238474011],[-149.78873691189705,61.143200953207305],[-149.78874206732846,61.143178611663089],[-149.78873084467563,61.143144400871883],[-149.78873009637897,61.143121416336044],[-149.78873150044578,61.143103170032049],[-149.78872369857751,61.143070402009037],[-149.78872205196561,61.143040654054836],[-149.78871618956006,61.143010512843276],[-149.78871662614131,61.143008474727175]]},"properties":{"OBJECTID":6,"esrignss_avg_h_rms":0.44558691532864442,"esrignss_avg_v_rms":0.81880000000000008,"esrignss_manual_locations":0,"Shape__Length":196.68132122580491,"CreationDate":1780085935583,"Creator":"sfmoore@middlebury.edu_middlebury","EditDate":1785452127719,"Editor":"sfmoore@middlebury.edu_middlebury","col_date":"2026-05-29","travel_direction":"South","name":"Sahalee","youtube":"pLeICMHF1_k"}},{"type":"Feature","id":7,"geometry":{"type":"LineString","coordinates":[[-149.74659299112838,61.138246585516811],[-149.74658709009529,61.138253887156942],[-149.74662834252976,61.138249076634203],[-149.74667462193656,61.138239731365616],[-149.74673482972187,61.138232561974824],[-149.74677113872733,61.138224965037793],[-149.74682234539347,61.138218242700994],[-149.74689179324977,61.138207329469978],[-149.74693779507714,61.138200224680531],[-149.74700084603032,61.138190229841264],[-149.74704894901714,61.138184821352709],[-149.74709252898651,61.138177731301127],[-149.7471521178326,61.138169954833941],[-149.74720112182965,61.138163304465685],[-149.74725101336219,61.138155576126316],[-149.74731329715408,61.13814329438064],[-149.74735963854468,61.138135279415941],[-149.74740143895147,61.138127313014259],[-149.7474487127933,61.138119677026438],[-149.74750296744321,61.138110551129643],[-149.74754730469238,61.138101590004645],[-149.74761672739584,61.138088881992402],[-149.74766878835979,61.138078200268275],[-149.74770937604097,61.13807035483142],[-149.74776071026787,61.138053989243012],[-149.74780370363737,61.138035709657309],[-149.74784516987091,61.13801793305791],[-149.74788646632283,61.13800391201611],[-149.74792345355633,61.137988964759124],[-149.74796859749262,61.137970908015767],[-149.74800462891866,61.137956411273173],[-149.74805542595305,61.137936197689676],[-149.74809637835023,61.137925575753371],[-149.74815035542068,61.137910697838421]]},"properties":{"OBJECTID":7,"esrignss_avg_h_rms":0.54936215911835229,"esrignss_avg_v_rms":0.96114705882352947,"esrignss_manual_locations":0,"Shape__Length":195.47398408611204,"CreationDate":1780089859784,"Creator":"sfmoore@middlebury.edu_middlebury","EditDate":1785452127719,"Editor":"sfmoore@middlebury.edu_middlebury","col_date":"2026-05-29","travel_direction":"Southwest","name":"Hilltop","youtube":"-NQZSPIB6m0"}},{"type":"Feature","id":8,"geometry":{"type":"LineString","coordinates":[[-149.71973228705318,61.138214781150083],[-149.71973274609229,61.13821500923175],[-149.71969794356156,61.138206872872935],[-149.71963678446036,61.138200952720965],[-149.71958305083334,61.13819276996167],[-149.71953040147287,61.138187014147384],[-149.71947738559973,61.138179769295483],[-149.71942107021457,61.138174663469016],[-149.71936324206646,61.138172667968703],[-149.71931129698518,61.138171458180345],[-149.71925717169268,61.138167011882466],[-149.71920152555239,61.138163492221409],[-149.71914542127135,61.138160704503896],[-149.71909706136631,61.138163866865646],[-149.71904619605999,61.13817306732895],[-149.7189945348463,61.13818558581724],[-149.71893853656644,61.138191861970519],[-149.71888513711272,61.138194525237637],[-149.71883136485809,61.138195467484316],[-149.71878980969137,61.138190647413133],[-149.71873355090008,61.138180845529867],[-149.71868032841445,61.138182295974616],[-149.71862788117488,61.138187924306742],[-149.7185787289558,61.138188682700552],[-149.71851744229386,61.138194553856266],[-149.71846406170474,61.138200995648909],[-149.71841251098385,61.13820683905093],[-149.71835800929725,61.138216045572342],[-149.71830311414854,61.138229131645772],[-149.71824927182536,61.138226919341335],[-149.7181925162657,61.138223808586091],[-149.71814140482101,61.138225265966753],[-149.71808812574147,61.138218584823413],[-149.7180390804219,61.138207692406091],[-149.71798795909572,61.138200063809158],[-149.7179283424019,61.138188429035374],[-149.71787569753297,61.138181080116006],[-149.71782714808344,61.138168359994509],[-149.71777972062972,61.138155403113494],[-149.7177345452524,61.138140627206681],[-149.71769241426554,61.13812904834753],[-149.71763431931782,61.138109676958258],[-149.71758035482378,61.138092863030259]]},"properties":{"OBJECTID":8,"esrignss_avg_h_rms":0.31850287601093147,"esrignss_avg_v_rms":0.55232558139534882,"esrignss_manual_locations":0,"Shape__Length":252.42444959072628,"CreationDate":1780431005564,"Creator":"sfmoore@middlebury.edu_middlebury","EditDate":1785452127719,"Editor":"sfmoore@middlebury.edu_middlebury","col_date":"2026-06-02","travel_direction":"East","name":"Prospect Heights","youtube":"WpGbLa5AWC0"}},{"type":"Feature","id":9,"geometry":{"type":"LineString","coordinates":[[-149.49565383392473,61.284033140467059],[-149.49565936395365,61.284031815419226],[-149.49561388045419,61.284020057451308],[-149.49556424314486,61.284004894060011],[-149.49551084279275,61.283990530438921],[-149.49545574821809,61.283986111160694],[-149.49540406005497,61.283976885877607],[-149.49535011981541,61.283982911186804],[-149.49529841997418,61.283980801465482],[-149.49524322209322,61.283974088165607],[-149.49519794610458,61.283967747345955],[-149.49514150675191,61.283957967003531],[-149.49508020032704,61.283948484902552],[-149.49503096546295,61.283936571522759],[-149.49500670196713,61.283931674009651],[-149.49490111758189,61.284007789313591],[-149.49485182163235,61.284001108390399],[-149.49481347165457,61.283993864643463],[-149.4947572685588,61.283984367015258],[-149.49471730700341,61.283978824249047],[-149.49466264900994,61.283968544534353],[-149.49460844286907,61.28395780644361],[-149.49455330337861,61.283948033435507],[-149.49450068995071,61.283938536225087],[-149.49444953448858,61.283928784791641],[-149.49439975883868,61.283918328530739],[-149.49433610421764,61.283906718132101],[-149.49428785300879,61.283897809198407],[-149.49424209282822,61.283888977089411],[-149.49418864306881,61.283877699454194],[-149.49414547542611,61.283870425034173],[-149.49408392555782,61.283856545190972],[-149.49402266315036,61.283846242129073],[-149.49398256145778,61.283837359075079],[-149.49392307951126,61.283826092211676]]},"properties":{"OBJECTID":9,"esrignss_avg_h_rms":1.1203512568368044,"esrignss_avg_v_rms":1.9701714285714287,"esrignss_manual_locations":0,"Shape__Length":216.61728785993043,"CreationDate":1780440251903,"Creator":"sfmoore@middlebury.edu_middlebury","EditDate":1785452127719,"Editor":"sfmoore@middlebury.edu_middlebury","col_date":"2026-06-02","travel_direction":"Southeast","name":"Hiland Upper","youtube":"nbQAqi-Ja7k"}},{"type":"Feature","id":10,"geometry":{"type":"LineString","coordinates":[[-149.5476991564349,61.292718171955428],[-149.54769940796317,61.292716742853052],[-149.5476759340865,61.292713370309329],[-149.5476153085846,61.292700923479615],[-149.5475513745875,61.292690878332976],[-149.54750732929082,61.29268433819864],[-149.54746708386776,61.292677829130383],[-149.54737361955233,61.29266242785404],[-149.54734632693737,61.292659132541715],[-149.54729620633441,61.292649328586428],[-149.54724053773626,61.292640235297561],[-149.54718697209418,61.292630821837896],[-149.54713450329507,61.292620467719424],[-149.54707900627511,61.292608428182945],[-149.54703919024678,61.292600844247801],[-149.54698661993805,61.292590010298078],[-149.54693287463294,61.292577454682892],[-149.54689279539818,61.292568055012254],[-149.54683287507379,61.292554022814095],[-149.5467925730569,61.292544716770756],[-149.54673120195332,61.292530480465132],[-149.54668950575109,61.292521233529627],[-149.54662856763548,61.292506457844411],[-149.54658875609871,61.292496431189832],[-149.54652443762271,61.292479703407217],[-149.54648283125201,61.292469051938376],[-149.54643445248234,61.292457685045818],[-149.54638981429758,61.292445935412204],[-149.54633818183001,61.292435316294075],[-149.54627815999598,61.292427876868324],[-149.54622201259576,61.292419276284122],[-149.5461758526649,61.292413673303415],[-149.54612778561065,61.292405175842994],[-149.54605910761057,61.292394753473587]]},"properties":{"OBJECTID":10,"esrignss_avg_h_rms":1.1293301853886213,"esrignss_avg_v_rms":2.2567058823529416,"esrignss_manual_locations":0,"Shape__Length":198.13104709873062,"CreationDate":1780443315434,"Creator":"sfmoore@middlebury.edu_middlebury","EditDate":1785452127719,"Editor":"sfmoore@middlebury.edu_middlebury","col_date":"2026-06-02","travel_direction":"East","name":"Hiland Lower","youtube":"3ojHpReB5rc"}},{"type":"Feature","id":12,"geometry":{"type":"LineString","coordinates":[[-149.74055983291669,61.144895174591312],[-149.74056174902319,61.144895481526007],[-149.74057767435653,61.144877318183283],[-149.74059775170315,61.144860029681695],[-149.74062598844748,61.14483059728542],[-149.74064678893788,61.144810587523509],[-149.74068020536814,61.144780465342635],[-149.74070018928995,61.144759302804786],[-149.74072079843918,61.144738868142497],[-149.74075096566304,61.144708610633018],[-149.74076989945431,61.144689929985773],[-149.74079608354819,61.144662703648805],[-149.74082307612585,61.144635385814077],[-149.74084192637378,61.14461747290057],[-149.74086803590751,61.144588557910346],[-149.74089376455558,61.144562151287687],[-149.74091234081735,61.144544269546671],[-149.74093981848526,61.144515225297837],[-149.74095851691789,61.144496436587445],[-149.74099016815862,61.144467688828726],[-149.74100902559306,61.144448639105164],[-149.74103824329768,61.144421461548994],[-149.74105544783197,61.144402459485846],[-149.74108501587955,61.144374044593214],[-149.74110398380679,61.144354354487831],[-149.74113413755592,61.144324703987344],[-149.74115530725393,61.144303414552766],[-149.74118535679847,61.144273120209242],[-149.74120457625398,61.144255259981115],[-149.74123174490146,61.144226607380027],[-149.74125603085514,61.144202881856899],[-149.74128082615363,61.144180773395597],[-149.74130651617412,61.144154830312985],[-149.74133311169643,61.144128334019513]]},"properties":{"OBJECTID":12,"esrignss_avg_h_rms":0.40133268395503546,"esrignss_avg_v_rms":0.78197058823529397,"esrignss_manual_locations":0,"Shape__Length":196.96957859182902,"CreationDate":1782753147066,"Creator":"sfmoore@middlebury.edu_middlebury","EditDate":1785452127719,"Editor":"sfmoore@middlebury.edu_middlebury","col_date":"2026-06-29","travel_direction":"South","name":"Gasline 1","youtube":"UMlADyA9Zjw"}},{"type":"Feature","id":13,"geometry":{"type":"LineString","coordinates":[[-149.73747035507637,61.150476618553995],[-149.73746940106557,61.150477184202231],[-149.73746681661248,61.150490301170578],[-149.73745160004987,61.150521550065235],[-149.73744310378393,61.150543088005691],[-149.73743334718162,61.150577488864307],[-149.7374259091311,61.150599295936075],[-149.73741802821107,61.150622258123569],[-149.73741119742166,61.150648595527429],[-149.73740577429228,61.150674168313749],[-149.73739810178145,61.150708728103382],[-149.73739052449201,61.1507306053023],[-149.73738305500044,61.150763354972234],[-149.73737838016771,61.150783432912569],[-149.73737388050645,61.150813886583833],[-149.73736818428921,61.150834120964639],[-149.7373641203109,61.150871269958863],[-149.73736023240232,61.15089875577403],[-149.73735821298959,61.150923210947262]]},"properties":{"OBJECTID":13,"esrignss_avg_h_rms":0.40925172901869433,"esrignss_avg_v_rms":0.77542105263157879,"esrignss_manual_locations":0,"Shape__Length":103.94466113053947,"CreationDate":1782755502697,"Creator":"sfmoore@middlebury.edu_middlebury","EditDate":1785452127719,"Editor":"sfmoore@middlebury.edu_middlebury","col_date":"2026-06-29","travel_direction":"North","name":"Gasline 2","youtube":"x6CutP2Z5pg"}},{"type":"Feature","id":14,"geometry":{"type":"LineString","coordinates":[[-149.73703582200716,61.151546582393827],[-149.73703895802581,61.151547587956621],[-149.73704508094278,61.151535761322506],[-149.73705304091453,61.151511137585132],[-149.73705790529178,61.15148528504573],[-149.73706276607578,61.151461290180855],[-149.73707605934536,61.151426278276844],[-149.73709882984116,61.151393715671567],[-149.73708106385982,61.151372649021617],[-149.73707754515885,61.151339692801933],[-149.73707980801504,61.15131969583441],[-149.73708030747835,61.151296728086201],[-149.73708563358963,61.151251234644704],[-149.73708290091457,61.151235278116644],[-149.73707982777799,61.151219628453738]]},"properties":{"OBJECTID":14,"esrignss_avg_h_rms":0.4668447259294613,"esrignss_avg_v_rms":0.90700000000000003,"esrignss_manual_locations":0,"Shape__Length":77.288084980445774,"CreationDate":1782757560252,"Creator":"sfmoore@middlebury.edu_middlebury","EditDate":1785452127719,"Editor":"sfmoore@middlebury.edu_middlebury","col_date":"2026-06-29","travel_direction":"South","name":"Gasline 2-2","youtube":"Co2oiuLV-rw"}},{"type":"Feature","id":15,"geometry":{"type":"LineString","coordinates":[[-149.71988774141141,61.1513591583657],[-149.71989025310094,61.151362536123081],[-149.71985733523567,61.151363852897909],[-149.71978454654484,61.151359270625314],[-149.71973851058146,61.151348609860733],[-149.71968734883109,61.151336642285642],[-149.71963082952837,61.151327124482194],[-149.71959601082793,61.151320129703215],[-149.71953706158234,61.1513107206871],[-149.71948321925919,61.151305018842741],[-149.71944702433976,61.151302641882033],[-149.71936961741002,61.151310375239021],[-149.71931339634799,61.151315901974463],[-149.71927004275406,61.151319867474797],[-149.71920446304338,61.15132779370623],[-149.71916016172682,61.151331451032661],[-149.71909787254501,61.151337396896182],[-149.71903752372424,61.151339755650021],[-149.71897504320125,61.151341425241938],[-149.71893033854116,61.15134302808476],[-149.71886916327031,61.151340876513117],[-149.7188081901204,61.151339855340098],[-149.71876406128041,61.151338533363067],[-149.71870117741389,61.151334739505359],[-149.71865542352151,61.151332379450849],[-149.71860720016042,61.151330889300652],[-149.71853749269101,61.151328004789214],[-149.71848805570599,61.151326843182694],[-149.71843876873959,61.151324882754942],[-149.71838903441221,61.151321777624389],[-149.71834257803727,61.151320068588831],[-149.71827856678507,61.151314912441372],[-149.71822358000824,61.151311901365332],[-149.71816531168565,61.151311552883193],[-149.71812162751169,61.151311410282936],[-149.71805486202484,61.151310805640428]]},"properties":{"OBJECTID":15,"esrignss_avg_h_rms":0.26456149304169041,"esrignss_avg_v_rms":0.41513888888888895,"esrignss_manual_locations":0,"Shape__Length":208.89802810960481,"CreationDate":1782762824792,"Creator":"sfmoore@middlebury.edu_middlebury","EditDate":1785452127719,"Editor":"sfmoore@middlebury.edu_middlebury","col_date":"2026-06-29","travel_direction":"East","name":"Basher 4","youtube":"6DP6QMFFq0Q"}},{"type":"Feature","id":16,"geometry":{"type":"LineString","coordinates":[[-150.77337883685476,60.560134735669607],[-150.77337782355511,60.560135452715571],[-150.77338311373379,60.560107689249307],[-150.77338716693237,60.560077108346405],[-150.77338298257979,60.56005282498456],[-150.77338560206715,60.560025916695331],[-150.77338952860322,60.559999245928253],[-150.77340193613395,60.559975627015007],[-150.77341351631631,60.559947583037854],[-150.77342455571284,60.559921939655041],[-150.77343646917009,60.559894965909841],[-150.77344418929167,60.559868684468128],[-150.77345154469722,60.559842388875886],[-150.77345790476946,60.559815378858467],[-150.77346348420565,60.559789260720194],[-150.77346974097159,60.55976143205087],[-150.77347916070568,60.559736721044949],[-150.77348965123156,60.559709291479507],[-150.77350183957336,60.559686031765551],[-150.77351519033508,60.559659208829316],[-150.7735318657617,60.559634966658201],[-150.77355033422563,60.559608314996332],[-150.77356834993864,60.559584049827087],[-150.77358689925094,60.559558403948316],[-150.77360774735209,60.559532016263681],[-150.77362660927812,60.559507197346832],[-150.7736457038678,60.559481770852315],[-150.77366576145144,60.559459231126453],[-150.77368670297733,60.559432895462685],[-150.77370524061152,60.559407906918139],[-150.77372371716029,60.559383540927136],[-150.77374153883721,60.559357306314666],[-150.77376074930959,60.559331409018831],[-150.77377867878431,60.559307758709878],[-150.77380171967306,60.5592811019214]]},"properties":{"OBJECTID":16,"esrignss_avg_h_rms":0.17487738642073181,"esrignss_avg_v_rms":0.32648571428571427,"esrignss_manual_locations":0,"Shape__Length":200.91410923572627,"CreationDate":1783536878601,"Creator":"sfmoore@middlebury.edu_middlebury","EditDate":1785452127719,"Editor":"sfmoore@middlebury.edu_middlebury","col_date":"2026-07-08","travel_direction":"South","name":"Grandview","youtube":"tBKcSDNcw40"}},{"type":"Feature","id":17,"geometry":{"type":"LineString","coordinates":[[-150.71656836498738,60.560723837880317],[-150.71656842247955,60.560723884681721],[-150.71661321158132,60.560723252862701],[-150.71666542076733,60.560723444042054],[-150.71671816624752,60.560723379138203],[-150.71677348450274,60.560723707189588],[-150.71682874077416,60.560723152637053],[-150.71688246272313,60.560722455031119],[-150.71693488031826,60.56072189650483],[-150.71698792493746,60.560720798879238],[-150.71704449274921,60.560719458857619],[-150.71709782572762,60.560720386496953],[-150.71715380963445,60.560721856767792],[-150.71720642485897,60.560723340284206],[-150.71726136043188,60.56072397651846],[-150.71731819144998,60.560725160682374],[-150.71737209306198,60.560724505904204],[-150.71742746880935,60.560726631836019],[-150.71747121766199,60.560724668826104],[-150.71752004109771,60.560724713861397],[-150.71757646607733,60.560726390323133],[-150.71762959693478,60.560726901606408],[-150.71768278258949,60.560728805452165],[-150.71774001245964,60.560729113193482],[-150.71778997406079,60.56073027042433],[-150.71784890983164,60.56073028278697],[-150.7179027332902,60.560731651948636],[-150.7179565109347,60.560732395914243],[-150.71801250472296,60.560734092244076],[-150.71806575775133,60.560734162887705],[-150.71812054510221,60.560735582824293],[-150.71817649846631,60.560736521059773],[-150.71823059052113,60.560737228378898],[-150.71828290570832,60.560737771451613],[-150.71833880876679,60.560737982499397],[-150.71839508552438,60.560737207185824]]},"properties":{"OBJECTID":17,"esrignss_avg_h_rms":0.1929002759332811,"esrignss_avg_v_rms":0.28625000000000006,"esrignss_manual_locations":0,"Shape__Length":203.52127740219277,"CreationDate":1783546682079,"Creator":"sfmoore@middlebury.edu_middlebury","EditDate":1783714993825,"Editor":"sfmoore@middlebury.edu_middlebury","col_date":"2026-07-08","travel_direction":"West","name":"Moose River","youtube":"A6Uf9fwLHVE"}},{"type":"Feature","id":18,"geometry":{"type":"LineString","coordinates":[[-150.59604424109506,60.558733742750213],[-150.59604484206798,60.558733686231825],[-150.59606605039352,60.558763955788152],[-150.59608604329847,60.558792584078148],[-150.59610275735267,60.558818671229915],[-150.59611939145677,60.558842978479056],[-150.59613700562286,60.558868930918003],[-150.59615175326488,60.558895181822365],[-150.59617295620052,60.558918862016746],[-150.59619024427818,60.55894446998812],[-150.59620914303514,60.558969167028401],[-150.59622598734501,60.558995095964136],[-150.59624471272713,60.559020981607581],[-150.59626202326265,60.559045220265055],[-150.59628081062849,60.559071194177406],[-150.59629513426569,60.559096554763016],[-150.59631532390171,60.559121482173445],[-150.59633518834758,60.559146450186745],[-150.59635446170199,60.559172540143862],[-150.59636672460394,60.559187786209954],[-150.59639839291265,60.559203853539763],[-150.5964396031263,60.559220631304655],[-150.59648203325213,60.559236623114295],[-150.59652684930336,60.559252433441884],[-150.59656626198813,60.559268485285592],[-150.59661014379142,60.559285605212288],[-150.59665529491423,60.559302506566603],[-150.59669598051178,60.559317965836172],[-150.59674244856478,60.559334354543644],[-150.59678484365631,60.559350596651036],[-150.59682847932123,60.559367638823019],[-150.59687028332129,60.55938293910669],[-150.59691674328948,60.559399272147104],[-150.59696006095081,60.559415668761112],[-150.59700063605555,60.559430041345678],[-150.59704853332818,60.559448407654735],[-150.5970938739955,60.55946502236452],[-150.59713655385298,60.559481958506723]]},"properties":{"OBJECTID":18,"esrignss_avg_h_rms":0.18426933688021876,"esrignss_avg_v_rms":0.32213157894736838,"esrignss_manual_locations":0,"Shape__Length":217.66752973972532,"CreationDate":1783552535571,"Creator":"sfmoore@middlebury.edu_middlebury","EditDate":1783714993825,"Editor":"sfmoore@middlebury.edu_middlebury","col_date":"2026-07-08","travel_direction":"Northwest","name":"Three Johns North","youtube":"AyIpHd0IVN8"}},{"type":"Feature","id":19,"geometry":{"type":"LineString","coordinates":[[-150.58943622937349,60.547474460536137],[-150.58943619074594,60.547474529441914],[-150.58945267662804,60.547494981196678],[-150.58946171278146,60.547521316864547],[-150.58946915083203,60.547548151193212],[-150.58947993780197,60.547574484167569],[-150.58948965398005,60.547601725701313],[-150.58949444289883,60.547626188467724],[-150.58950634018649,60.547650852631413],[-150.58951851146026,60.547676681541475],[-150.58952483559986,60.547700108905183],[-150.58953326539049,60.547727897599636],[-150.58953900652344,60.547754092617367],[-150.58954467848616,60.547779947505298],[-150.58954634036942,60.547805269683451],[-150.58955793402649,60.547832364820536],[-150.58956306520341,60.547857179446204],[-150.58956835987368,60.547879462681152],[-150.58957419712638,60.547907622689344],[-150.58956913062821,60.547931661636682],[-150.58956823860115,60.547956789791094],[-150.58956570355539,60.547986260245935],[-150.58951825274545,60.547991894527769],[-150.58949300559439,60.548008220070244],[-150.58947366037475,60.548035717864131],[-150.58946856063886,60.548059037194101],[-150.58947210988256,60.548085900670372],[-150.58947326960759,60.548114147512777]]},"properties":{"OBJECTID":19,"esrignss_avg_h_rms":0.33851996069698931,"esrignss_avg_v_rms":0.58017857142857132,"esrignss_manual_locations":0,"Shape__Length":151.83091268015608,"CreationDate":1783555695493,"Creator":"sfmoore@middlebury.edu_middlebury","EditDate":1785452127719,"Editor":"sfmoore@middlebury.edu_middlebury","col_date":"2026-07-08","travel_direction":"Northwest","name":"Three Johns Center","youtube":"bRymhheb9Ak"}},{"type":"Feature","id":20,"geometry":{"type":"LineString","coordinates":[[-150.58802560128959,60.536906890250478],[-150.58802661908081,60.536906366660723],[-150.58804497974688,60.53693194743461],[-150.58806391982634,60.536961454000419],[-150.58807906542202,60.536985589008005],[-150.58809296235947,60.537007618157212],[-150.58811153233302,60.53703205712057],[-150.58812965674221,60.537057158834259],[-150.58814534222537,60.537081717058506],[-150.58816197902445,60.537107732469451],[-150.58817939735778,60.537134597085164],[-150.58819372997814,60.537158226935432],[-150.58821208705098,60.537185511702965],[-150.58822390888014,60.537211119650557],[-150.58824056095054,60.537236859247216],[-150.58825380391445,60.537266541830391],[-150.58826194714251,60.537293568470545],[-150.58827409146684,60.537319509039875],[-150.58828558900416,60.537347285883307],[-150.58829341602524,60.537372240661128],[-150.58830429731827,60.537398974272307],[-150.5883138679693,60.537425574867342],[-150.58832370991158,60.537450553886011],[-150.58833486608907,60.537477785386322],[-150.58834369024012,60.537504771200801],[-150.58835584714083,60.537530148697513],[-150.58837056963006,60.53755489566997],[-150.58838857456328,60.537580214362819],[-150.58840136926787,60.537603205873168],[-150.58841965178053,60.537629063570627],[-150.5884344317619,60.537655205790855],[-150.58844974713918,60.53767888872342]]},"properties":{"OBJECTID":20,"esrignss_avg_h_rms":0.15889002866525478,"esrignss_avg_v_rms":0.25184374999999998,"esrignss_manual_locations":0,"Shape__Length":181.59575427073523,"CreationDate":1783558445941,"Creator":"sfmoore@middlebury.edu_middlebury","EditDate":1785452127719,"Editor":"sfmoore@middlebury.edu_middlebury","col_date":"2026-07-08","travel_direction":"North","name":"Three Johns South","youtube":"YagT-woTlEo"}},{"type":"Feature","id":21,"geometry":{"type":"LineString","coordinates":[[-149.8171441223277,61.197897972610406],[-149.81701708886845,61.198402734142753]]},"properties":{"OBJECTID":21,"esrignss_avg_h_rms":0.34229587202690437,"esrignss_avg_v_rms":0.50950000000000006,"esrignss_manual_locations":0,"Shape__Length":117.48328958309041,"CreationDate":1784841918176,"Creator":"sfmoore@middlebury.edu_middlebury","EditDate":1785527983820,"Editor":"sfmoore@middlebury.edu_middlebury","col_date":"2026-07-23","travel_direction":"Northwest","name":"Goose Lake Fire","youtube":"kIl51ihRo-A"}},{"type":"Feature","id":25,"geometry":{"type":"LineString","coordinates":[[-149.70048563146094,61.150926634696006],[-149.70049207417819,61.150929846491877],[-149.70045049385863,61.150933323119645],[-149.70039772322556,61.150936313860136],[-149.70034010797821,61.15094080777223],[-149.70028710378315,61.150943897769849],[-149.70023131840404,61.150949279800365],[-149.70018047914883,61.15094997633917],[-149.70013023637497,61.150962277376443],[-149.70007747472508,61.150971602842496],[-149.70002226426772,61.150981942988842],[-149.69997421068823,61.150996221366078],[-149.69992274710393,61.151005189234368],[-149.69987355535898,61.151011069276514],[-149.69982403932221,61.151021753127438],[-149.69977011615063,61.151033338095033],[-149.69972302736176,61.151042140812429],[-149.69967554511078,61.151052779575174],[-149.69962110810286,61.151057344988118],[-149.69957326472917,61.151062154859908],[-149.69952325012738,61.151072741603258],[-149.69946897661288,61.151079846530507],[-149.69941972468081,61.151090315372613],[-149.69936506129744,61.151099454422344],[-149.69931514281541,61.15110747346489],[-149.69926234433458,61.151112396456469],[-149.69921840234414,61.151128483944923],[-149.6991665012803,61.151131666679916],[-149.69911061349322,61.151142525598857],[-149.69907039861289,61.151163765777426],[-149.69903374645099,61.151182238011522],[-149.69899269613745,61.151200464042596],[-149.69894743452187,61.151215106407932],[-149.69890114253863,61.151230059540509],[-149.69885673881413,61.151245738671918],[-149.69880863492898,61.151263916988363]]},"properties":{"OBJECTID":25,"esrignss_avg_h_rms":0.23804002076161013,"esrignss_avg_v_rms":0.37227777777777776,"esrignss_manual_locations":0,"Shape__Length":208.08997340522791,"CreationDate":1785261754888,"Creator":"sfmoore@middlebury.edu_middlebury","EditDate":1786040365294,"Editor":"sfmoore@middlebury.edu_middlebury","col_date":"2026-07-28","travel_direction":"North","name":"Stuckagain Heights 1 Pre","youtube":"Bza3Rzc-8Mw"}},{"type":"Feature","id":26,"geometry":{"type":"LineString","coordinates":[[-149.70720061995644,61.150888900187773],[-149.70720337598772,61.150887127846346],[-149.70714711180653,61.150892365984035],[-149.70709630758566,61.150902915941828],[-149.70703995716619,61.150909791183565],[-149.70698121093989,61.150919387999117],[-149.70692558456255,61.150921636690192],[-149.70687117989397,61.150929458562423],[-149.70682239867909,61.150940414208179],[-149.70678708410864,61.150953257916562],[-149.70674458481255,61.150966426266429],[-149.70670190405679,61.150973471836323],[-149.70665457811268,61.150986491074427],[-149.70661307235329,61.150994775410858],[-149.70656211901203,61.151006588811072],[-149.70651229485313,61.151024223298769],[-149.70646129210456,61.151029604015278],[-149.70640817382349,61.151034615007156],[-149.70635489743896,61.15104259592357],[-149.70629960703153,61.151041210651961],[-149.70624898067703,61.151037831993314],[-149.70618899387733,61.15103356088283],[-149.70613495482309,61.151033677044545],[-149.70607741233925,61.151027383505436],[-149.7060270932086,61.151032559638054],[-149.7059689524468,61.15103397915172],[-149.70590787688894,61.151034409123504],[-149.70584837787442,61.151043303729715],[-149.70579840010356,61.151048180353314],[-149.70574112621603,61.151056850867676],[-149.70568788396744,61.151064813140579],[-149.70564099550288,61.151079433030006],[-149.70559855280067,61.151098732313955]]},"properties":{"OBJECTID":26,"esrignss_avg_h_rms":0.15952733752049461,"esrignss_avg_v_rms":0.28675757575757571,"esrignss_manual_locations":0,"Shape__Length":191.19254521825638,"CreationDate":1785264118503,"Creator":"sfmoore@middlebury.edu_middlebury","EditDate":1786040365294,"Editor":"sfmoore@middlebury.edu_middlebury","col_date":"2026-07-28","travel_direction":"North","name":"Stuckagain Heights 2 Pre","youtube":"W760p9xjEWE"}},{"type":"Feature","id":27,"geometry":{"type":"LineString","coordinates":[[-149.79788848448095,61.149321425777607],[-149.79793116164348,61.149307316560197],[-149.79796831326871,61.149293369451698],[-149.79800815175491,61.149277266290134],[-149.79804421641862,61.149261924282435],[-149.79808188188017,61.149242596133682],[-149.79811633676292,61.149220372432438],[-149.7981535997792,61.149203813662517],[-149.79818572083883,61.149188116611626],[-149.79822096623897,61.149171704769358],[-149.79825073550916,61.149152150296544],[-149.79828400731068,61.149134055289586],[-149.79832056604778,61.149117503409819],[-149.79836191999189,61.149100253207941],[-149.79840951632892,61.149083569536799],[-149.79845039596253,61.14906565264517],[-149.79847924984946,61.149043934241369],[-149.79850269947164,61.149019393086029],[-149.79852280107275,61.149001953838784],[-149.79855625702891,61.14898184745676],[-149.79858459977441,61.148966872019159],[-149.79864676139545,61.148940902526746],[-149.79869483833113,61.148924262118193],[-149.79873843087694,61.148910049124289],[-149.79878363589867,61.148897517548818],[-149.79882802884336,61.148886496607119],[-149.79887294730253,61.14886958568519],[-149.79891742199391,61.14885496607257],[-149.79896719584718,61.148835038186313],[-149.79901678195253,61.148817165367539]]},"properties":{"OBJECTID":27,"esrignss_avg_h_rms":0.30461858787421531,"esrignss_avg_v_rms":0.54556666666666664,"esrignss_manual_locations":0,"Shape__Length":173.17728535043244,"CreationDate":1785267336640,"Creator":"sfmoore@middlebury.edu_middlebury","EditDate":1786040365294,"Editor":"sfmoore@middlebury.edu_middlebury","col_date":"2026-07-28","travel_direction":"West","name":"Abbott Loop Northwest ","youtube":"qDA5m236uZE"}},{"type":"Feature","id":28,"geometry":{"type":"LineString","coordinates":[[-149.7966750761278,61.150047152503255],[-149.79667621519158,61.150045861680645],[-149.79663003819272,61.150056839739214],[-149.79658814885269,61.150066138165258],[-149.79652988142843,61.150078060709603],[-149.79648301182846,61.150088183989084],[-149.79644033197101,61.150101593699233],[-149.79638436962375,61.15011189555338],[-149.79633112557855,61.150125020475635],[-149.79628398468739,61.150135376503592],[-149.79624226962054,61.150148482344221],[-149.79619505686415,61.150155763460795],[-149.79614386457106,61.15016304804324],[-149.79609337655714,61.150169994098732],[-149.79604979658777,61.150180383487644],[-149.79600121300223,61.150193453766633],[-149.79595975126031,61.150207266541159],[-149.79591341975123,61.150220120083766],[-149.79587041560194,61.150233942815987],[-149.79582700810906,61.150247263606964],[-149.79577908748027,61.150263706531824],[-149.7957288608761,61.15028887478811],[-149.79569048844041,61.150299154908659],[-149.79565350839343,61.150314509849082],[-149.79560946938494,61.150331448171066],[-149.79557973784398,61.15034697864251],[-149.79553737419349,61.150365361630826],[-149.79550707581558,61.15038229775827],[-149.79547095455803,61.150401013614079],[-149.7954309274256,61.150420619326916],[-149.79538676624622,61.150441981790003]]},"properties":{"OBJECTID":28,"esrignss_avg_h_rms":0.44637747422356711,"esrignss_avg_v_rms":0.71867741935483853,"esrignss_manual_locations":0,"Shape__Length":172.97762737169137,"CreationDate":1785268671175,"Creator":"sfmoore@middlebury.edu_middlebury","EditDate":1786040365294,"Editor":"sfmoore@middlebury.edu_middlebury","col_date":"2026-07-28","travel_direction":"East","name":"Abbott Loop Northeast","youtube":"Q81Pi2nEXQw"}},{"type":"Feature","id":29,"geometry":{"type":"LineString","coordinates":[[-149.90155111909928,61.134030539795837],[-149.90155076246813,61.134030434846999],[-149.90159560457045,61.134023373786157],[-149.90165749849356,61.134019381393443],[-149.9016935011735,61.134019534479989],[-149.90174561244314,61.134018435119117],[-149.90180197723564,61.134017650171081],[-149.90184728466531,61.134026437684824],[-149.90189235943132,61.134044132398536],[-149.90193386788567,61.134052467150859],[-149.90198125311858,61.13406655933462],[-149.90201707433886,61.134084059307149],[-149.90205197748088,61.134100252616804],[-149.90209644139253,61.134107700495662],[-149.90214816997985,61.134110182832458],[-149.9021998249053,61.134116948977216],[-149.9022560899848,61.134126218272328],[-149.9022979784265,61.134137879261985],[-149.90232640291873,61.134157349362518],[-149.90233769204687,61.134180325679004],[-149.90234949860468,61.13420597685765],[-149.90237612916127,61.134219601910154],[-149.90240866434422,61.134244238269524],[-149.9024233670705,61.134266815980503],[-149.90246356667944,61.134296004961818],[-149.90250313028119,61.13431705351951],[-149.90250809077821,61.134336101983784],[-149.90249443009765,61.134360960290387],[-149.90247823616806,61.134387152106193],[-149.90244532908255,61.134411891114055],[-149.90241944322935,61.134427989716187],[-149.90243106832742,61.134445671194968],[-149.90247299000677,61.13446546548856],[-149.90251660950204,61.134489883955588],[-149.90253393081736,61.134514232583456],[-149.90255460913687,61.134538426807566],[-149.90257415557915,61.134547119637254],[-149.9025852264167,61.13457450604664],[-149.90260684617064,61.13459265666895],[-149.90261442884992,61.134610505883821],[-149.90265031924051,61.134637943844282],[-149.90265436794749,61.134661157459064],[-149.90267438959853,61.134683281259662],[-149.90268466542707,61.13470558718344],[-149.90269011460759,61.134740534804763]]},"properties":{"OBJECTID":29,"esrignss_avg_h_rms":0.26707583369507482,"esrignss_avg_v_rms":0.4557111111111109,"esrignss_manual_locations":0,"Shape__Length":248.18341621671962,"CreationDate":1785278136403,"Creator":"sfmoore@middlebury.edu_middlebury","EditDate":1785527983820,"Editor":"sfmoore@middlebury.edu_middlebury","col_date":"2026-07-28","travel_direction":"Northwest","name":"100th Street Fire","youtube":"ARHaTpzsmM8"}},{"type":"Feature","id":30,"geometry":{"type":"LineString","coordinates":[[-149.79759751477053,61.149088373207398],[-149.79760368799319,61.149088109660077],[-149.79757249758819,61.14911148517281],[-149.79753543130295,61.149134390791801],[-149.79749625038352,61.149151124718038],[-149.79744512546407,61.149167425603977],[-149.79742146833104,61.149191220218242],[-149.79740277708495,61.149214975802771],[-149.79737141150849,61.149239918627174],[-149.79732339026836,61.14925777690226],[-149.79727780436093,61.149275044790066],[-149.79723152315748,61.149293948991989],[-149.79719745634699,61.149314159639772],[-149.79717207714356,61.149333591775779],[-149.79712720629513,61.149351737383455],[-149.79712386007071,61.149374788037868],[-149.7971276087404,61.149401165494247],[-149.79712126483784,61.149426823382719],[-149.79710885281554,61.149450939429549],[-149.79708464501527,61.149479698255071],[-149.79706536177937,61.149505202634771],[-149.79705667147732,61.149529316020939],[-149.79704755537384,61.149550717665207],[-149.79702062837316,61.149579741676867],[-149.79700003090204,61.149601360016426],[-149.79698478649166,61.149627008206075],[-149.79694621732494,61.149651626911535]]},"properties":{"OBJECTID":30,"esrignss_avg_h_rms":0.63455621621903113,"esrignss_avg_v_rms":0.98211111111111093,"esrignss_manual_locations":0,"Shape__Length":156.24903151029378,"CreationDate":1785441793203,"Creator":"sfmoore@middlebury.edu_middlebury","EditDate":1786040365294,"Editor":"sfmoore@middlebury.edu_middlebury","col_date":"2026-07-23","travel_direction":"East","name":"Abbott Loop Center","youtube":"Sax-A4RdQiw"}},{"type":"Feature","id":31,"geometry":{"type":"LineString","coordinates":[[-149.79961774409784,61.14822683216228],[-149.7996149081165,61.14822979801751],[-149.79962587924103,61.148208348228501],[-149.79965834435541,61.148190795828846],[-149.7996750404433,61.148170907836793],[-149.79971146173816,61.148157744822797],[-149.7997450174073,61.148141493699008],[-149.79979638038029,61.148139186290159],[-149.79985301915897,61.148127764548917],[-149.79991630097916,61.148122309212752],[-149.79996496541304,61.148098341701314],[-149.80001034470794,61.148088949497435],[-149.80006128637106,61.148080774068696],[-149.80011842281641,61.148081615019564],[-149.80018186363839,61.148070914134699],[-149.80025077160718,61.148069720330803],[-149.80031494365784,61.148067903616123],[-149.80036511636308,61.148057522634915],[-149.80042460369953,61.148053731850695],[-149.80048094333918,61.148052166987128],[-149.8005254467767,61.148044594520016],[-149.80057787964319,61.148042274533118],[-149.80064339467518,61.14804410512069],[-149.8007094837306,61.148044954308681]]},"properties":{"OBJECTID":31,"esrignss_avg_h_rms":0.52896123518805371,"esrignss_avg_v_rms":0.85604166666666659,"esrignss_manual_locations":0,"Shape__Length":139.0252131275526,"CreationDate":1785441821060,"Creator":"sfmoore@middlebury.edu_middlebury","EditDate":1786040365294,"Editor":"sfmoore@middlebury.edu_middlebury","col_date":"2026-07-23","travel_direction":"West","name":"Abbott Loop West Pre","youtube":"cC_9raMjU7k"}},{"type":"Feature","id":32,"geometry":{"type":"LineString","coordinates":[[-149.79452162933882,61.150444649658759],[-149.79452325259453,61.150446762714637],[-149.7945307499339,61.150414323064872],[-149.79456442328231,61.150389909541808],[-149.79459544570236,61.15036426370586],[-149.79462893848941,61.150338817235507],[-149.79467780145097,61.150318016019206],[-149.79471501146665,61.150298895705944],[-149.79475332730846,61.150274353359016],[-149.79478117059071,61.150251549127688],[-149.79480948099689,61.150225447622958],[-149.79484231711544,61.150203752990059],[-149.79490337740194,61.150189455182485],[-149.79495310544112,61.150176143469572],[-149.7949976205567,61.150162335882875],[-149.79505630210434,61.150144189007385],[-149.79510545073018,61.150124793346919],[-149.79514029099013,61.15010034925826],[-149.79516739316227,61.150073627358019],[-149.79520603060095,61.150056098101643],[-149.79525918211968,61.150040720929375],[-149.79531490821003,61.150036840658551],[-149.79534733739177,61.150014666930147],[-149.79537021568544,61.149992663966927],[-149.79540273649536,61.149970803161182],[-149.79542360166445,61.149948390119683],[-149.79542051505314,61.149924511119139],[-149.79545881921683,61.149900903876691],[-149.79549353371269,61.149877598301373],[-149.79554471342936,61.149859817532018],[-149.79560425466471,61.149849662103577],[-149.7956580736317,61.149848239068945]]},"properties":{"OBJECTID":32,"esrignss_avg_h_rms":0.43135441712287648,"esrignss_avg_v_rms":0.73199999999999998,"esrignss_manual_locations":0,"Shape__Length":198.42334018747152,"CreationDate":1785441839340,"Creator":"sfmoore@middlebury.edu_middlebury","EditDate":1786040365294,"Editor":"sfmoore@middlebury.edu_middlebury","col_date":"2026-07-23","travel_direction":"West","name":"Abbott Loop East Pre","youtube":"kqQOhwEMz2I"}},{"type":"Feature","id":33,"geometry":{"type":"LineString","coordinates":[[-149.74639814564492,61.139538858470146],[-149.74640304236155,61.139513114496857],[-149.74641755913655,61.139491037872922],[-149.74643896329482,61.139473714335523],[-149.74645157564143,61.139441919443072],[-149.74647043307587,61.139419627270783],[-149.74649880816074,61.139395335757328],[-149.74653350469026,61.139376169370138],[-149.74656590961749,61.139341815706914],[-149.7465705215682,61.139316271896277],[-149.74657701459103,61.139292517534351],[-149.74658091327936,61.139262990625966],[-149.74659343759109,61.139245159650123],[-149.74662243520845,61.13922785592348],[-149.7466437621116,61.139203041338803],[-149.74667940726209,61.139170622653886],[-149.74670662531688,61.139151064153687],[-149.74673918385602,61.139132064555326],[-149.74675985498902,61.139110960670159],[-149.74680748366541,61.139085280954887],[-149.74683885014016,61.139069268845766],[-149.7468678872834,61.139051969358817],[-149.74688938396818,61.139026416207997],[-149.74694088258678,61.138994658155184],[-149.74697175588645,61.138973763609343],[-149.74699114422523,61.138953241082959],[-149.74701658990398,61.138934176324703],[-149.74706551215436,61.138908343836476]]},"properties":{"OBJECTID":33,"esrignss_avg_h_rms":0.5,"esrignss_avg_v_rms":0.80000000000000004,"esrignss_manual_locations":0,"Shape__Length":167.13414526728076,"CreationDate":1785520946846,"Creator":"sfmoore@middlebury.edu_middlebury","EditDate":1786573204000,"Editor":"sfmoore@middlebury.edu_middlebury","col_date":"2026-07-28","travel_direction":"Southwest","name":"Hilltop 2","youtube":"CCFv39XZO90"}},{"type":"Feature","id":34,"geometry":{"type":"LineString","coordinates":[[-149.79949837236964,61.148262652149391],[-149.79953981165366,61.148260085963422],[-149.79959011551296,61.148255837451316],[-149.79965524786263,61.148247473069588],[-149.79970503429232,61.148240055400862],[-149.79975826665944,61.148231622525451],[-149.79980620974615,61.148221861038081],[-149.79986194122637,61.148206509414401],[-149.79990546729681,61.148197445819186],[-149.79996519358514,61.148184510392419],[-149.80001808638903,61.148171911339745],[-149.8000665765498,61.148159954264067],[-149.80012248589642,61.148148535564687],[-149.80016551250361,61.148136128095395],[-149.80021204343868,61.148122321783639],[-149.80025192504405,61.148112949960428],[-149.8002927606602,61.148100490893114],[-149.80033754077883,61.148088141491208],[-149.80037753647019,61.14807872891074],[-149.80042232467363,61.148070504929585],[-149.80045041319596,61.148065820744549],[-149.80049090565569,61.148057796160913],[-149.80053414965514,61.148043260267492],[-149.80056880306554,61.148033810827805],[-149.80060312140435,61.14802003351452],[-149.80064026763966,61.148007309987157],[-149.8006791027077,61.147995881262517],[-149.80071826925408,61.147984970543668],[-149.80076615035705,61.147974978801443],[-149.80081262559659,61.147965894766145],[-149.80085654423084,61.147962257856847],[-149.8009096867664,61.147951976975179]]},"properties":{"OBJECTID":34,"esrignss_avg_h_rms":0.49451937766724163,"esrignss_avg_v_rms":0.78587499999999999,"esrignss_manual_locations":0,"Shape__Length":174.11031121741667,"CreationDate":1785539816947,"Creator":"sfmoore@middlebury.edu_middlebury","EditDate":1786040365294,"Editor":"sfmoore@middlebury.edu_middlebury","col_date":"2026-07-31","travel_direction":"West","name":"Abbott Loop West","youtube":"vy9n9D5OIOQ"}},{"type":"Feature","id":35,"geometry":{"type":"LineString","coordinates":[[-149.79462534432994,61.150492410322393],[-149.79461736639189,61.15046529605101],[-149.79463934187868,61.150431064114628],[-149.79465634519039,61.150404812785361],[-149.79466839159838,61.150378986647048],[-149.79469096446479,61.150353567929265],[-149.79471908802142,61.150328362447958],[-149.79474528559004,61.150296618796247],[-149.79478219107685,61.150274707920879],[-149.79482641154505,61.150251992547084],[-149.79486833142778,61.15022934824276],[-149.79490801720038,61.150210045826526],[-149.7949465684008,61.150186355575045],[-149.79498533340026,61.15016350230016],[-149.79501915227576,61.150136510846458],[-149.79504372658866,61.150114500599464],[-149.79508818960198,61.15009739398166],[-149.79513520742393,61.150080331133267],[-149.79518861765749,61.150062252696138],[-149.79523599121231,61.15004501601414],[-149.79528724279422,61.150029846460505],[-149.79534319166675,61.150013917055986],[-149.79539514303625,61.150005400997955],[-149.79545395034802,61.149992254353251],[-149.79551015973195,61.149978861501353],[-149.7955612307525,61.149965987054713],[-149.79562888107992,61.149953142511102]]},"properties":{"OBJECTID":35,"esrignss_avg_h_rms":0.51331354251855865,"esrignss_avg_v_rms":0.76062962962962954,"esrignss_manual_locations":0,"Shape__Length":177.17422303432153,"CreationDate":1785543424462,"Creator":"sfmoore@middlebury.edu_middlebury","EditDate":1786040365294,"Editor":"sfmoore@middlebury.edu_middlebury","col_date":"2026-07-31","travel_direction":"West","name":"Abbott Loop East","youtube":"dny2ofAao9g"}},{"type":"Feature","id":36,"geometry":{"type":"LineString","coordinates":[[-149.73982095422247,61.154209691869561],[-149.73988581887417,61.154228548476311],[-149.73994233368532,61.154246836890735],[-149.74003239877572,61.15427192656017],[-149.74010953261759,61.154295668786197],[-149.74019079870979,61.154318039301849],[-149.74026515406246,61.154340261147482],[-149.7403312305415,61.154359143246438],[-149.74040974060239,61.154381670605432],[-149.74046820565601,61.154397994793683],[-149.74051656196778,61.154411640605517],[-149.74056366423136,61.154426107690611],[-149.74061578089089,61.154442997866454],[-149.74067503915691,61.154459769283783],[-149.74074058113837,61.154477191213616],[-149.74080692082379,61.154494544657901],[-149.74087321559347,61.154510385122826],[-149.74093694657128,61.154525946909168],[-149.74099938667007,61.154539341298779],[-149.74107110187413,61.15455384819731],[-149.74113785658119,61.154569465436225],[-149.74121077822269,61.154587686044167],[-149.74127159237082,61.154601098176585],[-149.74133707686008,61.15461946048481],[-149.74138772387579,61.154632299662303],[-149.74144294690959,61.154644450611755]]},"properties":{"OBJECTID":36,"esrignss_avg_h_rms":0.36300383544679932,"esrignss_avg_v_rms":0.61784615384615393,"esrignss_manual_locations":0,"Shape__Length":206.82884567689186,"CreationDate":1786041163000,"Creator":"sfmoore@middlebury.edu_middlebury","EditDate":1786041491000,"Editor":"sfmoore@middlebury.edu_middlebury","col_date":"2026-05-27","travel_direction":"West","name":"Basher 1","youtube":"CfG_1aSznwA"}},{"type":"Feature","id":37,"geometry":{"type":"LineString","coordinates":[[-149.79751068631015,61.149071614106845],[-149.79751685953278,61.149071350559367],[-149.79748566912778,61.14909472608452],[-149.79744860284254,61.149117631715647],[-149.79740942192311,61.149134365650788],[-149.79735829700365,61.149150666545381],[-149.79733463987066,61.149174461172265],[-149.79731594862454,61.149198216769456],[-149.79728458304805,61.149223159607061],[-149.79723656180792,61.149241017891626],[-149.79719097590052,61.149258285788591],[-149.79714469469707,61.149277190000561],[-149.79711062788655,61.149297400659087],[-149.79708524868317,61.149316832805397],[-149.79704037783469,61.149334978422715],[-149.79703703161027,61.14935802908937],[-149.79704078027996,61.14938440655974],[-149.7970344363774,61.149410064461847],[-149.79702202435513,61.149434180521475],[-149.79699781655484,61.149462939362266],[-149.79697853331896,61.149488443755544],[-149.79696984301694,61.149512557154495],[-149.79696072691343,61.14953395881011],[-149.79693379991275,61.14956298283721],[-149.79691320244163,61.149584601188209],[-149.79689795803125,61.149610249391529],[-149.79685938886453,61.149634868110049]]},"properties":{"OBJECTID":37,"esrignss_avg_h_rms":0.63455621621903113,"esrignss_avg_v_rms":0.98211111111111093,"esrignss_manual_locations":0,"Shape__Length":156.24903151909751,"CreationDate":1786041474000,"Creator":"sfmoore@middlebury.edu_middlebury","EditDate":1786041671000,"Editor":"sfmoore@middlebury.edu_middlebury","col_date":"2026-07-23","travel_direction":"East","name":"Abbott Loop Center Pre","youtube":"NuRI9XqRUGY"}}]}